{
  "type": "FeatureCollection",
  "features": [
    {
      "type": "Feature",
      "properties": {
        "norad_id": 66876,
        "name": "STARLINK-35702",
        "group": "last-30-days",
        "lat": -18.783091773722692,
        "lon": -85.05302285657686,
        "alt_km": 350.11814702988977,
        "timestamp": "2025-12-20T16:47:35.024894+00:00",
        "meta_object_name": "STARLINK-35702",
        "meta_object_id": "2025-281AE",
        "meta_epoch": "2025-12-20T12:00:02.000160",
        "meta_mean_motion": 15.74511466,
        "meta_eccentricity": 0.0001045,
        "meta_inclination": 43.0006,
        "meta_ra_of_asc_node": 74.7513,
        "meta_arg_of_pericenter": 287.4055,
        "meta_mean_anomaly": 227.7614,
        "meta_ephemeris_type": 0,
        "meta_classification_type": "U",
        "meta_norad_cat_id": 66876,
        "meta_element_set_no": 999,
        "meta_rev_at_epoch": 267,
        "meta_bstar": -0.014646,
        "meta_mean_motion_dot": -0.01909677,
        "meta_mean_motion_ddot": 0,
        "tle_line1": "1 66876U 25281AE  25354.50002315 -.01909677  00000+0 -14646-1 0  9998",
        "tle_line2": "2 66876  43.0006  74.7513 0001045 287.4055 227.7614 15.74511466  2670"
      },
      "geometry": {
        "type": "Point",
        "coordinates": [
          -85.05302285657686,
          -18.783091773722692
        ]
      }
    },
    {
      "type": "Feature",
      "properties": {
        "norad_id": 66877,
        "name": "ZQ-3 R/B",
        "group": "last-30-days",
        "lat": -56.80592031261181,
        "lon": -57.57085282892547,
        "alt_km": 247.23449608919782,
        "timestamp": "2025-12-20T16:47:35.024905+00:00",
        "meta_object_name": "ZQ-3 R/B",
        "meta_object_id": "2025-282A",
        "meta_epoch": "2025-12-20T07:25:11.913024",
        "meta_mean_motion": 14.74860688,
        "meta_eccentricity": 0.0715463,
        "meta_inclination": 56.9493,
        "meta_ra_of_asc_node": 28.3554,
        "meta_arg_of_pericenter": 233.2383,
        "meta_mean_anomaly": 120.0902,
        "meta_ephemeris_type": 0,
        "meta_classification_type": "U",
        "meta_norad_cat_id": 66877,
        "meta_element_set_no": 999,
        "meta_rev_at_epoch": 250,
        "meta_bstar": 0.00016913,
        "meta_mean_motion_dot": 0.0093684,
        "meta_mean_motion_ddot": 7.7529e-06,
        "tle_line1": "1 66877U 25282A   25354.30916566  .00936840  77529-5  16913-3 0  9996",
        "tle_line2": "2 66877  56.9493  28.3554 0715463 233.2383 120.0902 14.74860688  2502"
      },
      "geometry": {
        "type": "Point",
        "coordinates": [
          -57.57085282892547,
          -56.80592031261181
        ]
      }
    },
    {
      "type": "Feature",
      "properties": {
        "norad_id": 66878,
        "name": "STARLINK-35866",
        "group": "last-30-days",
        "lat": -50.24556055248825,
        "lon": -81.74491268877264,
        "alt_km": 352.2102196036958,
        "timestamp": "2025-12-20T16:47:35.024931+00:00",
        "meta_object_name": "STARLINK-35866",
        "meta_object_id": "2025-283A",
        "meta_epoch": "2025-12-20T12:00:02.000160",
        "meta_mean_motion": 15.74191301,
        "meta_eccentricity": 7.43e-05,
        "meta_inclination": 53.158,
        "meta_ra_of_asc_node": 34.9065,
        "meta_arg_of_pericenter": 74.448,
        "meta_mean_anomaly": 127.1439,
        "meta_ephemeris_type": 0,
        "meta_classification_type": "U",
        "meta_norad_cat_id": 66878,
        "meta_element_set_no": 999,
        "meta_rev_at_epoch": 367,
        "meta_bstar": -0.00025556,
        "meta_mean_motion_dot": -0.0003789,
        "meta_mean_motion_ddot": 0,
        "tle_line1": "1 66878U 25283A   25354.50002315 -.00037890  00000+0 -25556-3 0  9994",
        "tle_line2": "2 66878  53.1580  34.9065 0000743  74.4480 127.1439 15.74191301  3672"
      },
      "geometry": {
        "type": "Point",
        "coordinates": [
          -81.74491268877264,
          -50.24556055248825
        ]
      }
    },
    {
      "type": "Feature",
      "properties": {
        "norad_id": 66879,
        "name": "STARLINK-35749",
        "group": "last-30-days",
        "lat": -51.43114462170895,
        "lon": -75.99321712617754,
        "alt_km": 352.6422702915461,
        "timestamp": "2025-12-20T16:47:35.024942+00:00",
        "meta_object_name": "STARLINK-35749",
        "meta_object_id": "2025-283B",
        "meta_epoch": "2025-12-20T12:00:02.000160",
        "meta_mean_motion": 15.7418841,
        "meta_eccentricity": 0.0001342,
        "meta_inclination": 53.1581,
        "meta_ra_of_asc_node": 34.8984,
        "meta_arg_of_pericenter": 75.0134,
        "meta_mean_anomaly": 130.4116,
        "meta_ephemeris_type": 0,
        "meta_classification_type": "U",
        "meta_norad_cat_id": 66879,
        "meta_element_set_no": 999,
        "meta_rev_at_epoch": 367,
        "meta_bstar": -0.00019264,
        "meta_mean_motion_dot": -0.00028745,
        "meta_mean_motion_ddot": 0,
        "tle_line1": "1 66879U 25283B   25354.50002315 -.00028745  00000+0 -19264-3 0  9993",
        "tle_line2": "2 66879  53.1581  34.8984 0001342  75.0134 130.4116 15.74188410  3678"
      },
      "geometry": {
        "type": "Point",
        "coordinates": [
          -75.99321712617754,
          -51.43114462170895
        ]
      }
    },
    {
      "type": "Feature",
      "properties": {
        "norad_id": 66880,
        "name": "STARLINK-35844",
        "group": "last-30-days",
        "lat": -50.874691914548436,
        "lon": -78.90123412810192,
        "alt_km": 352.393688041343,
        "timestamp": "2025-12-20T16:47:35.024952+00:00",
        "meta_object_name": "STARLINK-35844",
        "meta_object_id": "2025-283C",
        "meta_epoch": "2025-12-20T12:00:02.000160",
        "meta_mean_motion": 15.74197394,
        "meta_eccentricity": 0.0001007,
        "meta_inclination": 53.1581,
        "meta_ra_of_asc_node": 34.9028,
        "meta_arg_of_pericenter": 65.8591,
        "meta_mean_anomaly": 137.6509,
        "meta_ephemeris_type": 0,
        "meta_classification_type": "U",
        "meta_norad_cat_id": 66880,
        "meta_element_set_no": 999,
        "meta_rev_at_epoch": 367,
        "meta_bstar": -0.00034735,
        "meta_mean_motion_dot": -0.00051209,
        "meta_mean_motion_ddot": 0,
        "tle_line1": "1 66880U 25283C   25354.50002315 -.00051209  00000+0 -34735-3 0  9996",
        "tle_line2": "2 66880  53.1581  34.9028 0001007  65.8591 137.6509 15.74197394  3678"
      },
      "geometry": {
        "type": "Point",
        "coordinates": [
          -78.90123412810192,
          -50.874691914548436
        ]
      }
    },
    {
      "type": "Feature",
      "properties": {
        "norad_id": 66881,
        "name": "STARLINK-35860",
        "group": "last-30-days",
        "lat": -51.91193463042961,
        "lon": -73.02948768434794,
        "alt_km": 352.6068068190034,
        "timestamp": "2025-12-20T16:47:35.024962+00:00",
        "meta_object_name": "STARLINK-35860",
        "meta_object_id": "2025-283D",
        "meta_epoch": "2025-12-20T12:00:02.000160",
        "meta_mean_motion": 15.7415867,
        "meta_eccentricity": 0.0001228,
        "meta_inclination": 53.158,
        "meta_ra_of_asc_node": 34.8942,
        "meta_arg_of_pericenter": 81.231,
        "meta_mean_anomaly": 126.1129,
        "meta_ephemeris_type": 0,
        "meta_classification_type": "U",
        "meta_norad_cat_id": 66881,
        "meta_element_set_no": 999,
        "meta_rev_at_epoch": 367,
        "meta_bstar": 0.00015049,
        "meta_mean_motion_dot": 0.00021438,
        "meta_mean_motion_ddot": 0,
        "tle_line1": "1 66881U 25283D   25354.50002315  .00021438  00000+0  15049-3 0  9993",
        "tle_line2": "2 66881  53.1580  34.8942 0001228  81.2310 126.1129 15.74158670  3673"
      },
      "geometry": {
        "type": "Point",
        "coordinates": [
          -73.02948768434794,
          -51.91193463042961
        ]
      }
    },
    {
      "type": "Feature",
      "properties": {
        "norad_id": 66882,
        "name": "STARLINK-35912",
        "group": "last-30-days",
        "lat": -52.32006926220395,
        "lon": -69.97661368868405,
        "alt_km": 352.4738254594249,
        "timestamp": "2025-12-20T16:47:35.024975+00:00",
        "meta_object_name": "STARLINK-35912",
        "meta_object_id": "2025-283E",
        "meta_epoch": "2025-12-20T12:00:02.000160",
        "meta_mean_motion": 15.74188618,
        "meta_eccentricity": 0.0001071,
        "meta_inclination": 53.1579,
        "meta_ra_of_asc_node": 34.8907,
        "meta_arg_of_pericenter": 70.1277,
        "meta_mean_anomaly": 139.1294,
        "meta_ephemeris_type": 0,
        "meta_classification_type": "U",
        "meta_norad_cat_id": 66882,
        "meta_element_set_no": 999,
        "meta_rev_at_epoch": 367,
        "meta_bstar": -0.00021782,
        "meta_mean_motion_dot": -0.00032406,
        "meta_mean_motion_ddot": 0,
        "tle_line1": "1 66882U 25283E   25354.50002315 -.00032406  00000+0 -21782-3 0  9994",
        "tle_line2": "2 66882  53.1579  34.8907 0001071  70.1277 139.1294 15.74188618  3670"
      },
      "geometry": {
        "type": "Point",
        "coordinates": [
          -69.97661368868405,
          -52.32006926220395
        ]
      }
    }
  ]
}